<?xml version="1.0" encoding="utf-8" ?>
<kml xmlns="http://www.opengis.net/kml/2.2">
<Document id="root_doc">
<Folder><name>blacksmith</name>
  <Placemark>
      <Point><coordinates>-121.847972222222,36.891325</coordinates></Point>
  </Placemark>
  <Placemark>
      <Point><coordinates>-121.862973190536,36.9047278067581</coordinates></Point>
  </Placemark>
  <Placemark>
      <Point><coordinates>-121.863557351105,36.9043061605551</coordinates></Point>
  </Placemark>
  <Placemark>
      <Point><coordinates>-121.788618444951,36.8372634431021</coordinates></Point>
  </Placemark>
  <Placemark>
      <Point><coordinates>-121.789202092073,36.836841792105</coordinates></Point>
  </Placemark>
  <Placemark>
      <Point><coordinates>-121.86420605299,36.9038372231677</coordinates></Point>
  </Placemark>
  <Placemark>
      <Point><coordinates>-121.86479020677,36.9034155769014</coordinates></Point>
  </Placemark>
  <Placemark>
      <Point><coordinates>-121.789852169436,36.8363728501423</coordinates></Point>
  </Placemark>
  <Placemark>
      <Point><coordinates>-121.790435809791,36.8359511990819</coordinates></Point>
  </Placemark>
  <Placemark>
      <Point><coordinates>-121.86543889903,36.9029466409726</coordinates></Point>
  </Placemark>
  <Placemark>
      <Point><coordinates>-121.866023046022,36.902524994643</coordinates></Point>
  </Placemark>
  <Placemark>
      <Point><coordinates>-121.791085877468,36.8354822585778</coordinates></Point>
  </Placemark>
  <Placemark>
      <Point><coordinates>-121.791669511057,36.8350606074542</coordinates></Point>
  </Placemark>
  <Placemark>
      <Point><coordinates>-121.866671728658,36.9020560601727</coordinates></Point>
  </Placemark>
  <Placemark>
      <Point><coordinates>-121.867255868861,36.9016344137799</coordinates></Point>
  </Placemark>
  <Placemark>
      <Point><coordinates>-121.792319569048,36.8345916684088</coordinates></Point>
  </Placemark>
  <Placemark>
      <Point><coordinates>-121.792903195871,36.8341700172219</coordinates></Point>
  </Placemark>
  <Placemark>
      <Point><coordinates>-121.867904541874,36.9011654807681</coordinates></Point>
  </Placemark>
  <Placemark>
      <Point><coordinates>-121.868488675289,36.9007438343119</coordinates></Point>
  </Placemark>
  <Placemark>
      <Point><coordinates>-121.793553244177,36.833701079635</coordinates></Point>
  </Placemark>
  <Placemark>
      <Point><coordinates>-121.794136864234,36.8332794283848</coordinates></Point>
  </Placemark>
  <Placemark>
      <Point><coordinates>-121.86913733868,36.9002749027587</coordinates></Point>
  </Placemark>
  <Placemark>
      <Point><coordinates>-121.869721465307,36.8998532562392</coordinates></Point>
  </Placemark>
  <Placemark>
      <Point><coordinates>-121.794786902855,36.8328104922565</coordinates></Point>
  </Placemark>
  <Placemark>
      <Point><coordinates>-121.795370516148,36.8323888409431</coordinates></Point>
  </Placemark>
  <Placemark>
      <Point><coordinates>-121.870370119074,36.8993843261444</coordinates></Point>
  </Placemark>
  <Placemark>
      <Point><coordinates>-121.870954238914,36.8989626795616</coordinates></Point>
  </Placemark>
  <Placemark>
      <Point><coordinates>-121.796020545084,36.8319199062732</coordinates></Point>
  </Placemark>
  <Placemark>
      <Point><coordinates>-121.796604151611,36.8314982548965</coordinates></Point>
  </Placemark>
  <Placemark>
      <Point><coordinates>-121.87160288306,36.8984937509253</coordinates></Point>
  </Placemark>
  <Placemark>
      <Point><coordinates>-121.872186996112,36.8980721042792</coordinates></Point>
  </Placemark>
  <Placemark>
      <Point><coordinates>-121.797254170864,36.8310293216852</coordinates></Point>
  </Placemark>
  <Placemark>
      <Point><coordinates>-121.797837770627,36.8306076702453</coordinates></Point>
  </Placemark>
  <Placemark>
      <Point><coordinates>-121.872835630636,36.8976031771013</coordinates></Point>
  </Placemark>
  <Placemark>
      <Point><coordinates>-121.873419736902,36.8971815303919</coordinates></Point>
  </Placemark>
  <Placemark>
      <Point><coordinates>-121.798487780195,36.8301387384923</coordinates></Point>
  </Placemark>
  <Placemark>
      <Point><coordinates>-121.799071373194,36.8297170869891</coordinates></Point>
  </Placemark>
  <Placemark>
      <Point><coordinates>-121.874068361805,36.8967126046723</coordinates></Point>
  </Placemark>
  <Placemark>
      <Point><coordinates>-121.874652461283,36.8962909578995</coordinates></Point>
  </Placemark>
  <Placemark>
      <Point><coordinates>-121.79972137308,36.8292481566946</coordinates></Point>
  </Placemark>
  <Placemark>
      <Point><coordinates>-121.800304959314,36.8288265051281</coordinates></Point>
  </Placemark>
  <Placemark>
      <Point><coordinates>-121.875301076566,36.8958220336383</coordinates></Point>
  </Placemark>
  <Placemark>
      <Point><coordinates>-121.875885169258,36.8954003868022</coordinates></Point>
  </Placemark>
  <Placemark>
      <Point><coordinates>-121.800954949517,36.8283575762919</coordinates></Point>
  </Placemark>
  <Placemark>
      <Point><coordinates>-121.801538528988,36.8279359246622</coordinates></Point>
  </Placemark>
  <Placemark>
      <Point><coordinates>-121.87653377492,36.8949314639992</coordinates></Point>
  </Placemark>
  <Placemark>
      <Point><coordinates>-121.877117860827,36.8945098170999</coordinates></Point>
  </Placemark>
  <Placemark>
      <Point><coordinates>-121.802188509509,36.8274669972843</coordinates></Point>
  </Placemark>
  <Placemark>
      <Point><coordinates>-121.802772082216,36.8270453455914</coordinates></Point>
  </Placemark>
  <Placemark>
      <Point><coordinates>-121.877766456869,36.8940408957551</coordinates></Point>
  </Placemark>
  <Placemark>
      <Point><coordinates>-121.87835053599,36.8936192487925</coordinates></Point>
  </Placemark>
  <Placemark>
      <Point><coordinates>-121.803422053056,36.8265764196718</coordinates></Point>
  </Placemark>
  <Placemark>
      <Point><coordinates>-121.804005619,36.8261547679156</coordinates></Point>
  </Placemark>
  <Placemark>
      <Point><coordinates>-121.878999122413,36.893150328906</coordinates></Point>
  </Placemark>
  <Placemark>
      <Point><coordinates>-121.879583194748,36.8927286818801</coordinates></Point>
  </Placemark>
  <Placemark>
      <Point><coordinates>-121.804655580158,36.8256858434543</coordinates></Point>
  </Placemark>
  <Placemark>
      <Point><coordinates>-121.805239139339,36.8252641916348</coordinates></Point>
  </Placemark>
  <Placemark>
      <Point><coordinates>-121.880231771552,36.8922597634517</coordinates></Point>
  </Placemark>
  <Placemark>
      <Point><coordinates>-121.880815837102,36.8918381163625</coordinates></Point>
  </Placemark>
  <Placemark>
      <Point><coordinates>-121.805889090816,36.8247952686317</coordinates></Point>
  </Placemark>
  <Placemark>
      <Point><coordinates>-121.806472643235,36.8243736167489</coordinates></Point>
  </Placemark>
  <Placemark>
      <Point><coordinates>-121.881464404288,36.8913691993922</coordinates></Point>
  </Placemark>
  <Placemark>
      <Point><coordinates>-121.882048463053,36.8909475522397</coordinates></Point>
  </Placemark>
  <Placemark>
      <Point><coordinates>-121.807122585032,36.823904695204</coordinates></Point>
  </Placemark>
  <Placemark>
      <Point><coordinates>-121.807706130689,36.823483043258</coordinates></Point>
  </Placemark>
  <Placemark>
      <Point><coordinates>-121.882697020621,36.8904786367275</coordinates></Point>
  </Placemark>
  <Placemark>
      <Point><coordinates>-121.883281072602,36.8900569895117</coordinates></Point>
  </Placemark>
  <Placemark>
      <Point><coordinates>-121.808356062806,36.8230141231712</coordinates></Point>
  </Placemark>
  <Placemark>
      <Point><coordinates>-121.8089396017,36.8225924711619</coordinates></Point>
  </Placemark>
  <Placemark>
      <Point><coordinates>-121.883929620552,36.8895880754576</coordinates></Point>
  </Placemark>
  <Placemark>
      <Point><coordinates>-121.884513665749,36.8891664281784</coordinates></Point>
  </Placemark>
  <Placemark>
      <Point><coordinates>-121.809589524138,36.8221235525332</coordinates></Point>
  </Placemark>
  <Placemark>
      <Point><coordinates>-121.810173056271,36.8217019004607</coordinates></Point>
  </Placemark>
  <Placemark>
      <Point><coordinates>-121.885162204082,36.8886975155823</coordinates></Point>
  </Placemark>
  <Placemark>
      <Point><coordinates>-121.885746242495,36.8882758682399</coordinates></Point>
  </Placemark>
  <Placemark>
      <Point><coordinates>-121.81082296903,36.8212329832901</coordinates></Point>
  </Placemark>
  <Placemark>
      <Point><coordinates>-121.811406494402,36.8208113311543</coordinates></Point>
  </Placemark>
  <Placemark>
      <Point><coordinates>-121.886394771211,36.8878069571018</coordinates></Point>
  </Placemark>
  <Placemark>
      <Point><coordinates>-121.886978802841,36.8873853096961</coordinates></Point>
  </Placemark>
  <Placemark>
      <Point><coordinates>-121.812056397482,36.8203424154417</coordinates></Point>
  </Placemark>
  <Placemark>
      <Point><coordinates>-121.812639916092,36.8199207632427</coordinates></Point>
  </Placemark>
  <Placemark>
      <Point><coordinates>-121.88762732194,36.886916400016</coordinates></Point>
  </Placemark>
  <Placemark>
      <Point><coordinates>-121.888211346787,36.886494752547</coordinates></Point>
  </Placemark>
  <Placemark>
      <Point><coordinates>-121.813289809494,36.8194518489881</coordinates></Point>
  </Placemark>
  <Placemark>
      <Point><coordinates>-121.813873321344,36.8190301967258</coordinates></Point>
  </Placemark>
  <Placemark>
      <Point><coordinates>-121.888859856271,36.8860258443247</coordinates></Point>
  </Placemark>
  <Placemark>
      <Point><coordinates>-121.889443874334,36.8856041967924</coordinates></Point>
  </Placemark>
  <Placemark>
      <Point><coordinates>-121.814523205069,36.8185612839292</coordinates></Point>
  </Placemark>
  <Placemark>
      <Point><coordinates>-121.815106710159,36.8181396316037</coordinates></Point>
  </Placemark>
  <Placemark>
      <Point><coordinates>-121.890092374203,36.885135290028</coordinates></Point>
  </Placemark>
  <Placemark>
      <Point><coordinates>-121.890676385484,36.8847136424325</coordinates></Point>
  </Placemark>
  <Placemark>
      <Point><coordinates>-121.815756584206,36.8176707202649</coordinates></Point>
  </Placemark>
  <Placemark>
      <Point><coordinates>-121.816340082535,36.8172490678762</coordinates></Point>
  </Placemark>
  <Placemark>
      <Point><coordinates>-121.891324875738,36.8842447371259</coordinates></Point>
  </Placemark>
  <Placemark>
      <Point><coordinates>-121.891908880236,36.883823089467</coordinates></Point>
  </Placemark>
  <Placemark>
      <Point><coordinates>-121.816989946906,36.8167801579953</coordinates></Point>
  </Placemark>
  <Placemark>
      <Point><coordinates>-121.817573438476,36.8163585055433</coordinates></Point>
  </Placemark>
  <Placemark>
      <Point><coordinates>-121.892557360876,36.8833541856183</coordinates></Point>
  </Placemark>
  <Placemark>
      <Point><coordinates>-121.893141358592,36.8829325378961</coordinates></Point>
  </Placemark>
  <Placemark>
      <Point><coordinates>-121.81822329317,36.8158895971203</coordinates></Point>
  </Placemark>
  <Placemark>
      <Point><coordinates>-121.81880677798,36.815467944605</coordinates></Point>
  </Placemark>
  <Placemark>
      <Point><coordinates>-121.893789829618,36.8824636355051</coordinates></Point>
  </Placemark>
  <Placemark>
      <Point><coordinates>-121.894373820553,36.8820419877197</coordinates></Point>
  </Placemark>
  <Placemark>
      <Point><coordinates>-121.819456622998,36.8149990376398</coordinates></Point>
  </Placemark>
  <Placemark>
      <Point><coordinates>-121.82004010105,36.8145773850613</coordinates></Point>
  </Placemark>
  <Placemark>
      <Point><coordinates>-121.895022281964,36.8815730867864</coordinates></Point>
  </Placemark>
  <Placemark>
      <Point><coordinates>-121.895606266118,36.8811514389376</coordinates></Point>
  </Placemark>
  <Placemark>
      <Point><coordinates>-121.820689936392,36.8141084795539</coordinates></Point>
  </Placemark>
  <Placemark>
      <Point><coordinates>-121.821273407685,36.8136868269121</coordinates></Point>
  </Placemark>
  <Placemark>
      <Point><coordinates>-121.896254717917,36.8806825394621</coordinates></Point>
  </Placemark>
  <Placemark>
      <Point><coordinates>-121.896838695289,36.88026089155</coordinates></Point>
  </Placemark>
  <Placemark>
      <Point><coordinates>-121.821923233353,36.8132179228624</coordinates></Point>
  </Placemark>
  <Placemark>
      <Point><coordinates>-121.822506697887,36.8127962701574</coordinates></Point>
  </Placemark>
  <Placemark>
      <Point><coordinates>-121.897487137475,36.8797919935321</coordinates></Point>
  </Placemark>
  <Placemark>
      <Point><coordinates>-121.898071108067,36.8793703455568</coordinates></Point>
  </Placemark>
  <Placemark>
      <Point><coordinates>-121.82315651388,36.8123273675654</coordinates></Point>
  </Placemark>
  <Placemark>
      <Point><coordinates>-121.823739971656,36.8119057147972</coordinates></Point>
  </Placemark>
  <Placemark>
      <Point><coordinates>-121.89871954064,36.8789014489965</coordinates></Point>
  </Placemark>
  <Placemark>
      <Point><coordinates>-121.899303504452,36.8784798009579</coordinates></Point>
  </Placemark>
  <Placemark>
      <Point><coordinates>-121.824389777975,36.8114368136628</coordinates></Point>
  </Placemark>
  <Placemark>
      <Point><coordinates>-121.824973228993,36.8110151608313</coordinates></Point>
  </Placemark>
  <Placemark>
      <Point><coordinates>-121.899951927414,36.8780109058551</coordinates></Point>
  </Placemark>
  <Placemark>
      <Point><coordinates>-121.900535884445,36.8775892577532</coordinates></Point>
  </Placemark>
  <Placemark>
      <Point><coordinates>-121.825623025638,36.8105462611546</coordinates></Point>
  </Placemark>
  <Placemark>
      <Point><coordinates>-121.826206469899,36.8101246082599</coordinates></Point>
  </Placemark>
  <Placemark>
      <Point><coordinates>-121.901184297795,36.8771203641081</coordinates></Point>
  </Placemark>
  <Placemark>
      <Point><coordinates>-121.901768248047,36.8766987159429</coordinates></Point>
  </Placemark>
  <Placemark>
      <Point><coordinates>-121.826856256871,36.8096557100408</coordinates></Point>
  </Placemark>
  <Placemark>
      <Point><coordinates>-121.827439694374,36.8092340570828</coordinates></Point>
  </Placemark>
  <Placemark>
      <Point><coordinates>-121.902416651786,36.8762298237552</coordinates></Point>
  </Placemark>
  <Placemark>
      <Point><coordinates>-121.903000595259,36.8758081755267</coordinates></Point>
  </Placemark>
  <Placemark>
      <Point><coordinates>-121.828089471673,36.8087651603212</coordinates></Point>
  </Placemark>
  <Placemark>
      <Point><coordinates>-121.82867290242,36.8083435073</coordinates></Point>
  </Placemark>
  <Placemark>
      <Point><coordinates>-121.903648989388,36.8753392847965</coordinates></Point>
  </Placemark>
  <Placemark>
      <Point><coordinates>-121.904232926081,36.8749176365047</coordinates></Point>
  </Placemark>
  <Placemark>
      <Point><coordinates>-121.829322670047,36.8078746119959</coordinates></Point>
  </Placemark>
  <Placemark>
      <Point><coordinates>-121.829906094037,36.8074529589114</coordinates></Point>
  </Placemark>
  <Placemark>
      <Point><coordinates>-121.904881310599,36.8744487472319</coordinates></Point>
  </Placemark>
  <Placemark>
      <Point><coordinates>-121.905465240513,36.8740270988769</coordinates></Point>
  </Placemark>
  <Placemark>
      <Point><coordinates>-121.830555851992,36.8069840650649</coordinates></Point>
  </Placemark>
  <Placemark>
      <Point><coordinates>-121.831139269225,36.8065624119172</coordinates></Point>
  </Placemark>
  <Placemark>
      <Point><coordinates>-121.906113615423,36.8735582110615</coordinates></Point>
  </Placemark>
  <Placemark>
      <Point><coordinates>-121.906697538558,36.8731365626432</coordinates></Point>
  </Placemark>
  <Placemark>
      <Point><coordinates>-121.831789017509,36.806093519528</coordinates></Point>
  </Placemark>
  <Placemark>
      <Point><coordinates>-121.832372427986,36.8056718663171</coordinates></Point>
  </Placemark>
  <Placemark>
      <Point><coordinates>-121.907345903858,36.8726676762852</coordinates></Point>
  </Placemark>
  <Placemark>
      <Point><coordinates>-121.907929820216,36.8722460278036</coordinates></Point>
  </Placemark>
  <Placemark>
      <Point><coordinates>-121.833022166599,36.8052029753854</coordinates></Point>
  </Placemark>
  <Placemark>
      <Point><coordinates>-121.83360557032,36.8047813221112</coordinates></Point>
  </Placemark>
  <Placemark>
      <Point><coordinates>-121.908578175907,36.8717771429029</coordinates></Point>
  </Placemark>
  <Placemark>
      <Point><coordinates>-121.909162085486,36.871355494358</coordinates></Point>
  </Placemark>
  <Placemark>
      <Point><coordinates>-121.834255299263,36.8043124326368</coordinates></Point>
  </Placemark>
  <Placemark>
      <Point><coordinates>-121.834838696229,36.8038907792994</coordinates></Point>
  </Placemark>
  <Placemark>
      <Point><coordinates>-121.90981043157,36.8708866109146</coordinates></Point>
  </Placemark>
  <Placemark>
      <Point><coordinates>-121.910394334371,36.8704649623064</coordinates></Point>
  </Placemark>
  <Placemark>
      <Point><coordinates>-121.835488415501,36.8034218912823</coordinates></Point>
  </Placemark>
  <Placemark>
      <Point><coordinates>-121.836071805712,36.8030002378817</coordinates></Point>
  </Placemark>
  <Placemark>
      <Point><coordinates>-121.911042670847,36.8699960803202</coordinates></Point>
  </Placemark>
  <Placemark>
      <Point><coordinates>-121.911626566871,36.8695744316488</coordinates></Point>
  </Placemark>
  <Placemark>
      <Point><coordinates>-121.836721515315,36.8025313513219</coordinates></Point>
  </Placemark>
  <Placemark>
      <Point><coordinates>-121.837304898771,36.802109697858</coordinates></Point>
  </Placemark>
  <Placemark>
      <Point><coordinates>-121.912274893739,36.8691055511198</coordinates></Point>
  </Placemark>
  <Placemark>
      <Point><coordinates>-121.912858782986,36.8686839023851</coordinates></Point>
  </Placemark>
  <Placemark>
      <Point><coordinates>-121.837954598704,36.8016408127556</coordinates></Point>
  </Placemark>
  <Placemark>
      <Point><coordinates>-121.838537975406,36.8012191592284</coordinates></Point>
  </Placemark>
  <Placemark>
      <Point><coordinates>-121.913507100247,36.8682150233133</coordinates></Point>
  </Placemark>
  <Placemark>
      <Point><coordinates>-121.914090982718,36.8677933745153</coordinates></Point>
  </Placemark>
  <Placemark>
      <Point><coordinates>-121.839187665671,36.8007502755831</coordinates></Point>
  </Placemark>
  <Placemark>
      <Point><coordinates>-121.839771035618,36.8003286219927</coordinates></Point>
  </Placemark>
  <Placemark>
      <Point><coordinates>-121.914739290372,36.8673244969006</coordinates></Point>
  </Placemark>
  <Placemark>
      <Point><coordinates>-121.915323166067,36.8669028480393</coordinates></Point>
  </Placemark>
  <Placemark>
      <Point><coordinates>-121.840420716214,36.7998597398047</coordinates></Point>
  </Placemark>
  <Placemark>
      <Point><coordinates>-121.841004079408,36.799438086151</coordinates></Point>
  </Placemark>
  <Placemark>
      <Point><coordinates>-121.915971464115,36.8664339718818</coordinates></Point>
  </Placemark>
  <Placemark>
      <Point><coordinates>-121.916555333033,36.8660123229572</coordinates></Point>
  </Placemark>
  <Placemark>
      <Point><coordinates>-121.841653750337,36.7989692054201</coordinates></Point>
  </Placemark>
  <Placemark>
      <Point><coordinates>-121.842237106777,36.7985475517032</coordinates></Point>
  </Placemark>
  <Placemark>
      <Point><coordinates>-121.917203621476,36.8655434482568</coordinates></Point>
  </Placemark>
  <Placemark>
      <Point><coordinates>-121.917787483619,36.8651217992689</coordinates></Point>
  </Placemark>
  <Placemark>
      <Point><coordinates>-121.842886768038,36.7980786724294</coordinates></Point>
  </Placemark>
  <Placemark>
      <Point><coordinates>-121.843470117725,36.7976570186493</coordinates></Point>
  </Placemark>
  <Placemark>
      <Point><coordinates>-121.918435762456,36.8646529260254</coordinates></Point>
  </Placemark>
  <Placemark>
      <Point><coordinates>-121.919019617823,36.8642312769743</coordinates></Point>
  </Placemark>
  <Placemark>
      <Point><coordinates>-121.844119769319,36.7971881408326</coordinates></Point>
  </Placemark>
  <Placemark>
      <Point><coordinates>-121.844703112253,36.7967664869893</coordinates></Point>
  </Placemark>
  <Placemark>
      <Point><coordinates>-121.919667887056,36.8637624051879</coordinates></Point>
  </Placemark>
  <Placemark>
      <Point><coordinates>-121.920251735648,36.8633407560734</coordinates></Point>
  </Placemark>
  <Placemark>
      <Point><coordinates>-121.84535275418,36.7962976106296</coordinates></Point>
  </Placemark>
  <Placemark>
      <Point><coordinates>-121.845936090362,36.795875956723</coordinates></Point>
  </Placemark>
  <Placemark>
      <Point><coordinates>-121.920899995277,36.862871885744</coordinates></Point>
  </Placemark>
  <Placemark>
      <Point><coordinates>-121.921483837094,36.8624502365663</coordinates></Point>
  </Placemark>
  <Placemark>
      <Point><coordinates>-121.846585722623,36.7954070818203</coordinates></Point>
  </Placemark>
  <Placemark>
      <Point><coordinates>-121.847169052052,36.7949854278505</coordinates></Point>
  </Placemark>
  <Placemark>
      <Point><coordinates>-121.922132087118,36.8619813676937</coordinates></Point>
  </Placemark>
  <Placemark>
      <Point><coordinates>-121.922715922161,36.8615597184527</coordinates></Point>
  </Placemark>
  <Placemark>
      <Point><coordinates>-121.847818674648,36.7945165544048</coordinates></Point>
  </Placemark>
  <Placemark>
      <Point><coordinates>-121.848401997325,36.7940949003717</coordinates></Point>
  </Placemark>
  <Placemark>
      <Point><coordinates>-121.923364162582,36.861090851037</coordinates></Point>
  </Placemark>
  <Placemark>
      <Point><coordinates>-121.92394799085,36.8606692017328</coordinates></Point>
  </Placemark>
  <Placemark>
      <Point><coordinates>-121.849051610256,36.793626028383</coordinates></Point>
  </Placemark>
  <Placemark>
      <Point><coordinates>-121.849634926181,36.7932043742867</coordinates></Point>
  </Placemark>
  <Placemark>
      <Point><coordinates>-121.924596221669,36.860200335774</coordinates></Point>
  </Placemark>
  <Placemark>
      <Point><coordinates>-121.925180043163,36.8597786864064</coordinates></Point>
  </Placemark>
  <Placemark>
      <Point><coordinates>-121.850284529447,36.7927355037548</coordinates></Point>
  </Placemark>
  <Placemark>
      <Point><coordinates>-121.850867838621,36.7923138495953</coordinates></Point>
  </Placemark>
  <Placemark>
      <Point><coordinates>-121.925828264379,36.8593098219044</coordinates></Point>
  </Placemark>
  <Placemark>
      <Point><coordinates>-121.9264120791,36.8588881724736</coordinates></Point>
  </Placemark>
  <Placemark>
      <Point><coordinates>-121.851517432223,36.7918449805202</coordinates></Point>
  </Placemark>
  <Placemark>
      <Point><coordinates>-121.852100734645,36.7914233262975</coordinates></Point>
  </Placemark>
  <Placemark>
      <Point><coordinates>-121.927060290714,36.8584193094284</coordinates></Point>
  </Placemark>
  <Placemark>
      <Point><coordinates>-121.927644098661,36.8579976599343</coordinates></Point>
  </Placemark>
  <Placemark>
      <Point><coordinates>-121.852750318583,36.7909544586793</coordinates></Point>
  </Placemark>
  <Placemark>
      <Point><coordinates>-121.853333614255,36.7905328043933</coordinates></Point>
  </Placemark>
  <Placemark>
      <Point><coordinates>-121.928292300673,36.8575287983458</coordinates></Point>
  </Placemark>
  <Placemark>
      <Point><coordinates>-121.928876101848,36.8571071487884</coordinates></Point>
  </Placemark>
  <Placemark>
      <Point><coordinates>-121.85398318853,36.7900639382319</coordinates></Point>
  </Placemark>
  <Placemark>
      <Point><coordinates>-121.854566477451,36.7896422838827</coordinates></Point>
  </Placemark>
  <Placemark>
      <Point><coordinates>-121.929524294259,36.8566382886566</coordinates></Point>
  </Placemark>
  <Placemark>
      <Point><coordinates>-121.930108088661,36.856216639036</coordinates></Point>
  </Placemark>
  <Placemark>
      <Point><coordinates>-121.855216042063,36.789173419178</coordinates></Point>
  </Placemark>
  <Placemark>
      <Point><coordinates>-121.855799324234,36.7887517647656</coordinates></Point>
  </Placemark>
  <Placemark>
      <Point><coordinates>-121.930756271471,36.8557477803609</coordinates></Point>
  </Placemark>
  <Placemark>
      <Point><coordinates>-121.9313400591,36.855326130677</coordinates></Point>
  </Placemark>
  <Placemark>
      <Point><coordinates>-121.856448879183,36.7882829015176</coordinates></Point>
  </Placemark>
  <Placemark>
      <Point><coordinates>-121.857032154605,36.7878612470419</coordinates></Point>
  </Placemark>
  <Placemark>
      <Point><coordinates>-121.93198823231,36.8548572734584</coordinates></Point>
  </Placemark>
  <Placemark>
      <Point><coordinates>-121.932572013168,36.8544356237113</coordinates></Point>
  </Placemark>
  <Placemark>
      <Point><coordinates>-121.857681699892,36.7873923852506</coordinates></Point>
  </Placemark>
  <Placemark>
      <Point><coordinates>-121.858264968564,36.7869707307117</coordinates></Point>
  </Placemark>
  <Placemark>
      <Point><coordinates>-121.933220176778,36.8539667679494</coordinates></Point>
  </Placemark>
  <Placemark>
      <Point><coordinates>-121.933803950863,36.8535451181389</coordinates></Point>
  </Placemark>
  <Placemark>
      <Point><coordinates>-121.858914504189,36.7865018703771</coordinates></Point>
  </Placemark>
  <Placemark>
      <Point><coordinates>-121.859497766112,36.786080215775</coordinates></Point>
  </Placemark>
  <Placemark>
      <Point><coordinates>-121.934452104874,36.8530762638336</coordinates></Point>
  </Placemark>
  <Placemark>
      <Point><coordinates>-121.935035872188,36.8526546139598</coordinates></Point>
  </Placemark>
  <Placemark>
      <Point><coordinates>-121.860147292076,36.7856113568969</coordinates></Point>
  </Placemark>
  <Placemark>
      <Point><coordinates>-121.86073054725,36.7851897022316</coordinates></Point>
  </Placemark>
  <Placemark>
      <Point><coordinates>-121.9356840166,36.852185761111</coordinates></Point>
  </Placemark>
  <Placemark>
      <Point><coordinates>-121.936267777143,36.851764111174</coordinates></Point>
  </Placemark>
  <Placemark>
      <Point><coordinates>-121.861380063553,36.78472084481</coordinates></Point>
  </Placemark>
  <Placemark>
      <Point><coordinates>-121.861963311978,36.7842991900815</coordinates></Point>
  </Placemark>
  <Placemark>
      <Point><coordinates>-121.936915911956,36.8512952597817</coordinates></Point>
  </Placemark>
  <Placemark>
      <Point><coordinates>-121.937499665728,36.8508736097814</coordinates></Point>
  </Placemark>
  <Placemark>
      <Point><coordinates>-121.862612818622,36.7838303341165</coordinates></Point>
  </Placemark>
  <Placemark>
      <Point><coordinates>-121.863196060298,36.7834086793247</coordinates></Point>
  </Placemark>
  <Placemark>
      <Point><coordinates>-121.938147790944,36.8504047598455</coordinates></Point>
  </Placemark>
  <Placemark>
      <Point><coordinates>-121.938731537945,36.849983109782</coordinates></Point>
  </Placemark>
  <Placemark>
      <Point><coordinates>-121.863845557282,36.7829398248162</coordinates></Point>
  </Placemark>
  <Placemark>
      <Point><coordinates>-121.864428792211,36.7825181699612</coordinates></Point>
  </Placemark>
  <Placemark>
      <Point><coordinates>-121.939379653563,36.8495142613025</coordinates></Point>
  </Placemark>
  <Placemark>
      <Point><coordinates>-121.939963393794,36.8490926111757</coordinates></Point>
  </Placemark>
  <Placemark>
      <Point><coordinates>-121.865078279535,36.7820493169092</coordinates></Point>
  </Placemark>
  <Placemark>
      <Point><coordinates>-121.865661507716,36.781627661991</coordinates></Point>
  </Placemark>
  <Placemark>
      <Point><coordinates>-121.940611499815,36.8486237641525</coordinates></Point>
  </Placemark>
  <Placemark>
      <Point><coordinates>-121.941195233276,36.8482021139625</coordinates></Point>
  </Placemark>
  <Placemark>
      <Point><coordinates>-121.866310985381,36.7811588103953</coordinates></Point>
  </Placemark>
  <Placemark>
      <Point><coordinates>-121.866894206814,36.7807371554139</coordinates></Point>
  </Placemark>
  <Placemark>
      <Point><coordinates>-121.9418433297,36.8477332683957</coordinates></Point>
  </Placemark>
  <Placemark>
      <Point><coordinates>-121.942427056392,36.8473116181424</coordinates></Point>
  </Placemark>
  <Placemark>
      <Point><coordinates>-121.867543674821,36.7802683052747</coordinates></Point>
  </Placemark>
  <Placemark>
      <Point><coordinates>-121.868126889508,36.77984665023</coordinates></Point>
  </Placemark>
  <Placemark>
      <Point><coordinates>-121.943075143219,36.8468427740319</coordinates></Point>
  </Placemark>
  <Placemark>
      <Point><coordinates>-121.943658863142,36.8464211237153</coordinates></Point>
  </Placemark>
  <Placemark>
      <Point><coordinates>-121.868776347856,36.7793778015471</coordinates></Point>
  </Placemark>
  <Placemark>
      <Point><coordinates>-121.869359555796,36.7789561464392</coordinates></Point>
  </Placemark>
  <Placemark>
      <Point><coordinates>-121.944306940373,36.845952281061</coordinates></Point>
  </Placemark>
  <Placemark>
      <Point><coordinates>-121.944890653527,36.8455306306812</coordinates></Point>
  </Placemark>
  <Placemark>
      <Point><coordinates>-121.870009004487,36.7784872992126</coordinates></Point>
  </Placemark>
  <Placemark>
      <Point><coordinates>-121.87059220568,36.7780656440415</coordinates></Point>
  </Placemark>
  <Placemark>
      <Point><coordinates>-121.945538721163,36.8450617894832</coordinates></Point>
  </Placemark>
  <Placemark>
      <Point><coordinates>-121.946122427548,36.8446401390401</coordinates></Point>
  </Placemark>
  <Placemark>
      <Point><coordinates>-121.871241644714,36.7775967982711</coordinates></Point>
  </Placemark>
  <Placemark>
      <Point><coordinates>-121.871824839161,36.7771751430368</coordinates></Point>
  </Placemark>
  <Placemark>
      <Point><coordinates>-121.946770485589,36.8441712992982</coordinates></Point>
  </Placemark>
  <Placemark>
      <Point><coordinates>-121.947354185205,36.8437496487919</coordinates></Point>
  </Placemark>
  <Placemark>
      <Point><coordinates>-121.872474268539,36.7767062987227</coordinates></Point>
  </Placemark>
  <Placemark>
      <Point><coordinates>-121.87305745624,36.7762846434251</coordinates></Point>
  </Placemark>
  <Placemark>
      <Point><coordinates>-121.948002233652,36.8432808105062</coordinates></Point>
  </Placemark>
  <Placemark>
      <Point><coordinates>-121.948585926501,36.8428591599366</coordinates></Point>
  </Placemark>
  <Placemark>
      <Point><coordinates>-121.873706875961,36.7758158005673</coordinates></Point>
  </Placemark>
  <Placemark>
      <Point><coordinates>-121.874290056916,36.7753941452065</coordinates></Point>
  </Placemark>
  <Placemark>
      <Point><coordinates>-121.949233965353,36.842390323107</coordinates></Point>
  </Placemark>
  <Placemark>
      <Point><coordinates>-121.949817651434,36.8419686724741</coordinates></Point>
  </Placemark>
  <Placemark>
      <Point><coordinates>-121.874939466982,36.7749253038048</coordinates></Point>
  </Placemark>
  <Placemark>
      <Point><coordinates>-121.875522641192,36.7745036483807</coordinates></Point>
  </Placemark>
  <Placemark>
      <Point><coordinates>-121.950465680693,36.8414998371006</coordinates></Point>
  </Placemark>
</Folder>
</Document></kml>
