<?xml version="1.0" encoding="UTF-8"?>
<kml xmlns="http://www.opengis.net/kml/2.2" xmlns:gx="http://www.google.com/kml/ext/2.2">
    <Document id="1">
        <Folder id="2">
            <Style id="5">
                <LineStyle id="6">
                    <color>ffff0000</color>
                    <colorMode>normal</colorMode>
                    <width>3</width>
                </LineStyle>
            </Style>
            <Style id="9">
                <IconStyle id="10">
                    <colorMode>normal</colorMode>
                    <scale>1</scale>
                    <heading>0</heading>
                    <Icon id="11">
                        <href>http://maps.google.com/mapfiles/kml/shapes/placemark_circle_highlight.png</href>
                    </Icon>
                </IconStyle>
            </Style>
            <Style id="14">
                <IconStyle id="15">
                    <colorMode>normal</colorMode>
                    <scale>1</scale>
                    <heading>0</heading>
                    <Icon id="16">
                        <href>http://maps.google.com/mapfiles/kml/shapes/placemark_circle.png</href>
                    </Icon>
                </IconStyle>
            </Style>
            <Style id="19">
                <LineStyle id="20">
                    <color>ffff0000</color>
                    <colorMode>normal</colorMode>
                    <width>3</width>
                </LineStyle>
            </Style>
            <Style id="23">
                <IconStyle id="24">
                    <colorMode>normal</colorMode>
                    <scale>1</scale>
                    <heading>0</heading>
                    <Icon id="25">
                        <href>http://maps.google.com/mapfiles/kml/shapes/placemark_circle_highlight.png</href>
                    </Icon>
                </IconStyle>
            </Style>
            <Style id="28">
                <IconStyle id="29">
                    <colorMode>normal</colorMode>
                    <scale>1</scale>
                    <heading>0</heading>
                    <Icon id="30">
                        <href>http://maps.google.com/mapfiles/kml/shapes/placemark_circle.png</href>
                    </Icon>
                </IconStyle>
            </Style>
            <Style id="33">
                <LineStyle id="34">
                    <color>ffff0000</color>
                    <colorMode>normal</colorMode>
                    <width>3</width>
                </LineStyle>
            </Style>
            <Style id="37">
                <IconStyle id="38">
                    <colorMode>normal</colorMode>
                    <scale>1</scale>
                    <heading>0</heading>
                    <Icon id="39">
                        <href>http://maps.google.com/mapfiles/kml/shapes/placemark_circle_highlight.png</href>
                    </Icon>
                </IconStyle>
            </Style>
            <Style id="42">
                <IconStyle id="43">
                    <colorMode>normal</colorMode>
                    <scale>1</scale>
                    <heading>0</heading>
                    <Icon id="44">
                        <href>http://maps.google.com/mapfiles/kml/shapes/placemark_circle.png</href>
                    </Icon>
                </IconStyle>
            </Style>
            <Style id="47">
                <LineStyle id="48">
                    <color>ffff0000</color>
                    <colorMode>normal</colorMode>
                    <width>3</width>
                </LineStyle>
            </Style>
            <Style id="51">
                <IconStyle id="52">
                    <colorMode>normal</colorMode>
                    <scale>1</scale>
                    <heading>0</heading>
                    <Icon id="53">
                        <href>http://maps.google.com/mapfiles/kml/shapes/placemark_circle_highlight.png</href>
                    </Icon>
                </IconStyle>
            </Style>
            <Style id="56">
                <IconStyle id="57">
                    <colorMode>normal</colorMode>
                    <scale>1</scale>
                    <heading>0</heading>
                    <Icon id="58">
                        <href>http://maps.google.com/mapfiles/kml/shapes/placemark_circle.png</href>
                    </Icon>
                </IconStyle>
            </Style>
            <Style id="61">
                <LineStyle id="62">
                    <color>ffff0000</color>
                    <colorMode>normal</colorMode>
                    <width>3</width>
                </LineStyle>
            </Style>
            <Style id="65">
                <IconStyle id="66">
                    <colorMode>normal</colorMode>
                    <scale>1</scale>
                    <heading>0</heading>
                    <Icon id="67">
                        <href>http://maps.google.com/mapfiles/kml/shapes/placemark_circle_highlight.png</href>
                    </Icon>
                </IconStyle>
            </Style>
            <Style id="70">
                <IconStyle id="71">
                    <colorMode>normal</colorMode>
                    <scale>1</scale>
                    <heading>0</heading>
                    <Icon id="72">
                        <href>http://maps.google.com/mapfiles/kml/shapes/placemark_circle.png</href>
                    </Icon>
                </IconStyle>
            </Style>
            <Style id="75">
                <LineStyle id="76">
                    <color>ffff0000</color>
                    <colorMode>normal</colorMode>
                    <width>3</width>
                </LineStyle>
            </Style>
            <Style id="79">
                <IconStyle id="80">
                    <colorMode>normal</colorMode>
                    <scale>1</scale>
                    <heading>0</heading>
                    <Icon id="81">
                        <href>http://maps.google.com/mapfiles/kml/shapes/placemark_circle_highlight.png</href>
                    </Icon>
                </IconStyle>
            </Style>
            <Style id="84">
                <IconStyle id="85">
                    <colorMode>normal</colorMode>
                    <scale>1</scale>
                    <heading>0</heading>
                    <Icon id="86">
                        <href>http://maps.google.com/mapfiles/kml/shapes/placemark_circle.png</href>
                    </Icon>
                </IconStyle>
            </Style>
            <Style id="89">
                <LineStyle id="90">
                    <color>ffff0000</color>
                    <colorMode>normal</colorMode>
                    <width>3</width>
                </LineStyle>
            </Style>
            <Style id="93">
                <IconStyle id="94">
                    <colorMode>normal</colorMode>
                    <scale>1</scale>
                    <heading>0</heading>
                    <Icon id="95">
                        <href>http://maps.google.com/mapfiles/kml/shapes/placemark_circle_highlight.png</href>
                    </Icon>
                </IconStyle>
            </Style>
            <Style id="98">
                <IconStyle id="99">
                    <colorMode>normal</colorMode>
                    <scale>1</scale>
                    <heading>0</heading>
                    <Icon id="100">
                        <href>http://maps.google.com/mapfiles/kml/shapes/placemark_circle.png</href>
                    </Icon>
                </IconStyle>
            </Style>
            <Style id="103">
                <LineStyle id="104">
                    <color>ffff0000</color>
                    <colorMode>normal</colorMode>
                    <width>3</width>
                </LineStyle>
            </Style>
            <Style id="107">
                <IconStyle id="108">
                    <colorMode>normal</colorMode>
                    <scale>1</scale>
                    <heading>0</heading>
                    <Icon id="109">
                        <href>http://maps.google.com/mapfiles/kml/shapes/placemark_circle_highlight.png</href>
                    </Icon>
                </IconStyle>
            </Style>
            <Style id="112">
                <IconStyle id="113">
                    <colorMode>normal</colorMode>
                    <scale>1</scale>
                    <heading>0</heading>
                    <Icon id="114">
                        <href>http://maps.google.com/mapfiles/kml/shapes/placemark_circle.png</href>
                    </Icon>
                </IconStyle>
            </Style>
            <Style id="117">
                <LineStyle id="118">
                    <color>ffff0000</color>
                    <colorMode>normal</colorMode>
                    <width>3</width>
                </LineStyle>
            </Style>
            <Style id="121">
                <IconStyle id="122">
                    <colorMode>normal</colorMode>
                    <scale>1</scale>
                    <heading>0</heading>
                    <Icon id="123">
                        <href>http://maps.google.com/mapfiles/kml/shapes/placemark_circle_highlight.png</href>
                    </Icon>
                </IconStyle>
            </Style>
            <Style id="126">
                <IconStyle id="127">
                    <colorMode>normal</colorMode>
                    <scale>1</scale>
                    <heading>0</heading>
                    <Icon id="128">
                        <href>http://maps.google.com/mapfiles/kml/shapes/placemark_circle.png</href>
                    </Icon>
                </IconStyle>
            </Style>
            <Style id="131">
                <LineStyle id="132">
                    <color>ffff0000</color>
                    <colorMode>normal</colorMode>
                    <width>3</width>
                </LineStyle>
            </Style>
            <Style id="135">
                <IconStyle id="136">
                    <colorMode>normal</colorMode>
                    <scale>1</scale>
                    <heading>0</heading>
                    <Icon id="137">
                        <href>http://maps.google.com/mapfiles/kml/shapes/placemark_circle_highlight.png</href>
                    </Icon>
                </IconStyle>
            </Style>
            <Style id="140">
                <IconStyle id="141">
                    <colorMode>normal</colorMode>
                    <scale>1</scale>
                    <heading>0</heading>
                    <Icon id="142">
                        <href>http://maps.google.com/mapfiles/kml/shapes/placemark_circle.png</href>
                    </Icon>
                </IconStyle>
            </Style>
            <name>FlightA</name>
            <Placemark id="4">
                <name>FL1</name>
                <styleUrl>#5</styleUrl>
                <LineString id="3">
                    <coordinates>-121.8496384,36.907216,0.0 -121.8427264,36.895232,0.0</coordinates>
                </LineString>
            </Placemark>
            <Placemark id="8">
                <name>Start Line 1</name>
                <styleUrl>#9</styleUrl>
                <Point id="7">
                    <coordinates>-121.8496384,36.907216,0.0</coordinates>
                </Point>
            </Placemark>
            <Placemark id="13">
                <name>End Line 1</name>
                <styleUrl>#14</styleUrl>
                <Point id="12">
                    <coordinates>-121.8427264,36.895232,0.0</coordinates>
                </Point>
            </Placemark>
            <Placemark id="18">
                <name>FL2</name>
                <styleUrl>#19</styleUrl>
                <LineString id="17">
                    <coordinates>-121.8436096,36.8949312,0.0 -121.8505472,36.9069696,0.0</coordinates>
                </LineString>
            </Placemark>
            <Placemark id="22">
                <name>Start Line 2</name>
                <styleUrl>#23</styleUrl>
                <Point id="21">
                    <coordinates>-121.8436096,36.8949312,0.0</coordinates>
                </Point>
            </Placemark>
            <Placemark id="27">
                <name>End Line 2</name>
                <styleUrl>#28</styleUrl>
                <Point id="26">
                    <coordinates>-121.8505472,36.9069696,0.0</coordinates>
                </Point>
            </Placemark>
            <Placemark id="32">
                <name>FL3</name>
                <styleUrl>#33</styleUrl>
                <LineString id="31">
                    <coordinates>-121.8514688,36.9067264,0.0 -121.8444928,36.8946336,0.0</coordinates>
                </LineString>
            </Placemark>
            <Placemark id="36">
                <name>Start Line 3</name>
                <styleUrl>#37</styleUrl>
                <Point id="35">
                    <coordinates>-121.8514688,36.9067264,0.0</coordinates>
                </Point>
            </Placemark>
            <Placemark id="41">
                <name>End Line 3</name>
                <styleUrl>#42</styleUrl>
                <Point id="40">
                    <coordinates>-121.8444928,36.8946336,0.0</coordinates>
                </Point>
            </Placemark>
            <Placemark id="46">
                <name>FL4</name>
                <styleUrl>#47</styleUrl>
                <LineString id="45">
                    <coordinates>-121.8453888,36.8943328,0.0 -121.8523904,36.9064832,0.0</coordinates>
                </LineString>
            </Placemark>
            <Placemark id="50">
                <name>Start Line 4</name>
                <styleUrl>#51</styleUrl>
                <Point id="49">
                    <coordinates>-121.8453888,36.8943328,0.0</coordinates>
                </Point>
            </Placemark>
            <Placemark id="55">
                <name>End Line 4</name>
                <styleUrl>#56</styleUrl>
                <Point id="54">
                    <coordinates>-121.8523904,36.9064832,0.0</coordinates>
                </Point>
            </Placemark>
            <Placemark id="60">
                <name>FL5</name>
                <styleUrl>#61</styleUrl>
                <LineString id="59">
                    <coordinates>-121.853312,36.90624,0.0 -121.846272,36.8940352,0.0</coordinates>
                </LineString>
            </Placemark>
            <Placemark id="64">
                <name>Start Line 5</name>
                <styleUrl>#65</styleUrl>
                <Point id="63">
                    <coordinates>-121.853312,36.90624,0.0</coordinates>
                </Point>
            </Placemark>
            <Placemark id="69">
                <name>End Line 5</name>
                <styleUrl>#70</styleUrl>
                <Point id="68">
                    <coordinates>-121.846272,36.8940352,0.0</coordinates>
                </Point>
            </Placemark>
            <Placemark id="74">
                <name>FL6</name>
                <styleUrl>#75</styleUrl>
                <LineString id="73">
                    <coordinates>-121.8471552,36.8937376,0.0 -121.8542208,36.9059936,0.0</coordinates>
                </LineString>
            </Placemark>
            <Placemark id="78">
                <name>Start Line 6</name>
                <styleUrl>#79</styleUrl>
                <Point id="77">
                    <coordinates>-121.8471552,36.8937376,0.0</coordinates>
                </Point>
            </Placemark>
            <Placemark id="83">
                <name>End Line 6</name>
                <styleUrl>#84</styleUrl>
                <Point id="82">
                    <coordinates>-121.8542208,36.9059936,0.0</coordinates>
                </Point>
            </Placemark>
            <Placemark id="88">
                <name>FL7</name>
                <styleUrl>#89</styleUrl>
                <LineString id="87">
                    <coordinates>-121.8551424,36.9057536,0.0 -121.8480512,36.8934368,0.0</coordinates>
                </LineString>
            </Placemark>
            <Placemark id="92">
                <name>Start Line 7</name>
                <styleUrl>#93</styleUrl>
                <Point id="91">
                    <coordinates>-121.8551424,36.9057536,0.0</coordinates>
                </Point>
            </Placemark>
            <Placemark id="97">
                <name>End Line 7</name>
                <styleUrl>#98</styleUrl>
                <Point id="96">
                    <coordinates>-121.8480512,36.8934368,0.0</coordinates>
                </Point>
            </Placemark>
            <Placemark id="102">
                <name>FL8</name>
                <styleUrl>#103</styleUrl>
                <LineString id="101">
                    <coordinates>-121.8489344,36.8931392,0.0 -121.856064,36.9055104,0.0</coordinates>
                </LineString>
            </Placemark>
            <Placemark id="106">
                <name>Start Line 8</name>
                <styleUrl>#107</styleUrl>
                <Point id="105">
                    <coordinates>-121.8489344,36.8931392,0.0</coordinates>
                </Point>
            </Placemark>
            <Placemark id="111">
                <name>End Line 8</name>
                <styleUrl>#112</styleUrl>
                <Point id="110">
                    <coordinates>-121.856064,36.9055104,0.0</coordinates>
                </Point>
            </Placemark>
            <Placemark id="116">
                <name>FL9</name>
                <styleUrl>#117</styleUrl>
                <LineString id="115">
                    <coordinates>-121.8569856,36.9052672,0.0 -121.8562432,36.9039968,0.0</coordinates>
                </LineString>
            </Placemark>
            <Placemark id="120">
                <name>Start Line 9</name>
                <styleUrl>#121</styleUrl>
                <Point id="119">
                    <coordinates>-121.8569856,36.9052672,0.0</coordinates>
                </Point>
            </Placemark>
            <Placemark id="125">
                <name>End Line 9</name>
                <styleUrl>#126</styleUrl>
                <Point id="124">
                    <coordinates>-121.8562432,36.9039968,0.0</coordinates>
                </Point>
            </Placemark>
            <Placemark id="130">
                <name>FL10</name>
                <styleUrl>#131</styleUrl>
                <LineString id="129">
                    <coordinates>-121.8455936,36.9020448,0.0 -121.8418304,36.8955296,0.0</coordinates>
                </LineString>
            </Placemark>
            <Placemark id="134">
                <name>Start Line 10</name>
                <styleUrl>#135</styleUrl>
                <Point id="133">
                    <coordinates>-121.8455936,36.9020448,0.0</coordinates>
                </Point>
            </Placemark>
            <Placemark id="139">
                <name>End Line 10</name>
                <styleUrl>#140</styleUrl>
                <Point id="138">
                    <coordinates>-121.8418304,36.8955296,0.0</coordinates>
                </Point>
            </Placemark>
        </Folder>
    </Document>
</kml>
