<?xml version="1.0" encoding="utf-8" ?>
<kml xmlns="http://www.opengis.net/kml/2.2">
<Document id="root_doc">
<Folder><name>simons</name>
  <Placemark>
      <Point><coordinates>-121.907369884276,36.9569201878998</coordinates></Point>
  </Placemark>
  <Placemark>
      <Point><coordinates>-121.916453019766,36.9516233701679</coordinates></Point>
  </Placemark>
  <Placemark>
      <Point><coordinates>-121.797869175436,36.8203432221945</coordinates></Point>
  </Placemark>
  <Placemark>
      <Point><coordinates>-121.806936148388,36.8150462841504</coordinates></Point>
  </Placemark>
  <Placemark>
      <Point><coordinates>-121.925714783544,36.9462080255164</coordinates></Point>
  </Placemark>
  <Placemark>
      <Point><coordinates>-121.934796647401,36.9409111983422</coordinates></Point>
  </Placemark>
  <Placemark>
      <Point><coordinates>-121.816229325789,36.8096308361656</coordinates></Point>
  </Placemark>
  <Placemark>
      <Point><coordinates>-121.825295035652,36.8043338886916</coordinates></Point>
  </Placemark>
  <Placemark>
      <Point><coordinates>-121.944057045199,36.9354958901163</coordinates></Point>
  </Placemark>
  <Placemark>
      <Point><coordinates>-121.953137638101,36.9301990535008</coordinates></Point>
  </Placemark>
  <Placemark>
      <Point><coordinates>-121.834586830406,36.7989184771408</coordinates></Point>
  </Placemark>
  <Placemark>
      <Point><coordinates>-121.843651277852,36.7936215202381</coordinates></Point>
  </Placemark>
  <Placemark>
      <Point><coordinates>-121.962396670647,36.9247837816887</coordinates></Point>
  </Placemark>
  <Placemark>
      <Point><coordinates>-121.971475993272,36.9194869356329</coordinates></Point>
  </Placemark>
  <Placemark>
      <Point><coordinates>-121.852941690699,36.7882061451095</coordinates></Point>
  </Placemark>
  <Placemark>
      <Point><coordinates>-121.862004876401,36.7829091787791</coordinates></Point>
  </Placemark>
  <Placemark>
      <Point><coordinates>-121.980733661297,36.9140717002228</coordinates></Point>
  </Placemark>
  <Placemark>
      <Point><coordinates>-121.98981171432,36.9087748447277</coordinates></Point>
  </Placemark>
  <Placemark>
      <Point><coordinates>-121.871293908078,36.7774938400609</coordinates></Point>
  </Placemark>
  <Placemark>
      <Point><coordinates>-121.880355832707,36.7721968643038</coordinates></Point>
  </Placemark>
  <Placemark>
      <Point><coordinates>-121.999068018552,36.9033596457079</coordinates></Point>
  </Placemark>
  <Placemark>
      <Point><coordinates>-122.008144802651,36.8980627807745</coordinates></Point>
  </Placemark>
  <Placemark>
      <Point><coordinates>-121.889643483953,36.7667815619843</coordinates></Point>
  </Placemark>
  <Placemark>
      <Point><coordinates>-121.898704148182,36.7614845768016</coordinates></Point>
  </Placemark>
  <Placemark>
      <Point><coordinates>-122.017399743819,36.8926476181332</coordinates></Point>
  </Placemark>
  <Placemark>
      <Point><coordinates>-122.026475259669,36.8873507437626</coordinates></Point>
  </Placemark>
  <Placemark>
      <Point><coordinates>-121.907990419734,36.7560693108691</coordinates></Point>
  </Placemark>
  <Placemark>
      <Point><coordinates>-121.917049824234,36.7507723162617</coordinates></Point>
  </Placemark>
  <Placemark>
      <Point><coordinates>-122.035728838501,36.881935617488</coordinates></Point>
  </Placemark>
  <Placemark>
      <Point><coordinates>-122.044803086778,36.8766387336812</coordinates></Point>
  </Placemark>
  <Placemark>
      <Point><coordinates>-121.92633471683,36.7453570867044</coordinates></Point>
  </Placemark>
  <Placemark>
      <Point><coordinates>-121.935392862271,36.7400600826736</coordinates></Point>
  </Placemark>
  <Placemark>
      <Point><coordinates>-122.054055304001,36.8712236437616</coordinates></Point>
  </Placemark>
  <Placemark>
      <Point><coordinates>-122.06312828538,36.8659267505196</coordinates></Point>
  </Placemark>
  <Placemark>
      <Point><coordinates>-121.944676376647,36.7346448894798</coordinates></Point>
  </Placemark>
  <Placemark>
      <Point><coordinates>-121.953733263701,36.7293478760264</coordinates></Point>
  </Placemark>
  <Placemark>
      <Point><coordinates>-122.072379141721,36.8605116969432</coordinates></Point>
  </Placemark>
  <Placemark>
      <Point><coordinates>-122.081450856877,36.8552147942671</coordinates></Point>
  </Placemark>
  <Placemark>
      <Point><coordinates>-121.963015400594,36.7239327191844</coordinates></Point>
  </Placemark>
  <Placemark>
      <Point><coordinates>-121.97207102993,36.7186356963095</coordinates></Point>
  </Placemark>
  <Placemark>
      <Point><coordinates>-122.090700353064,36.8497997770223</coordinates></Point>
  </Placemark>
  <Placemark>
      <Point><coordinates>-122.099770802672,36.844502864913</coordinates></Point>
  </Placemark>
  <Placemark>
      <Point><coordinates>-121.981351790076,36.7132205758076</coordinates></Point>
  </Placemark>
  <Placemark>
      <Point><coordinates>-121.990406162364,36.7079235435123</coordinates></Point>
  </Placemark>
  <Placemark>
      <Point><coordinates>-122.10901893943,36.8390878839881</coordinates></Point>
  </Placemark>
  <Placemark>
      <Point><coordinates>-122.118088124163,36.8337909624466</coordinates></Point>
  </Placemark>
  <Placemark>
      <Point><coordinates>-121.999685546498,36.7025084593388</coordinates></Point>
  </Placemark>
  <Placemark>
      <Point><coordinates>-122.008738662407,36.6972114176241</coordinates></Point>
  </Placemark>
  <Placemark>
      <Point><coordinates>-122.127334902219,36.8283760178298</coordinates></Point>
  </Placemark>
  <Placemark>
      <Point><coordinates>-122.136402822752,36.8230790868573</coordinates></Point>
  </Placemark>
  <Placemark>
      <Point><coordinates>-122.018016671265,36.6917963697673</coordinates></Point>
  </Placemark>
  <Placemark>
      <Point><coordinates>-122.027068531465,36.6864993186343</coordinates></Point>
  </Placemark>
  <Placemark>
      <Point><coordinates>-122.14564824283,36.817664178537</coordinates></Point>
  </Placemark>
  <Placemark>
      <Point><coordinates>-122.154714899836,36.8123672381345</coordinates></Point>
  </Placemark>
  <Placemark>
      <Point><coordinates>-122.036345165781,36.6810843070826</coordinates></Point>
  </Placemark>
  <Placemark>
      <Point><coordinates>-122.04539577094,36.6757872465323</coordinates></Point>
  </Placemark>
  <Placemark>
      <Point><coordinates>-122.163958962663,36.8069523660989</coordinates></Point>
  </Placemark>
  <Placemark>
      <Point><coordinates>-122.173024356814,36.8016554162673</coordinates></Point>
  </Placemark>
  <Placemark>
      <Point><coordinates>-122.054671031449,36.670372271274</coordinates></Point>
  </Placemark>
</Folder>
</Document></kml>
